STARLINK-11586 [DTC]    
1 63009C 25032E   26100.23937500  .00111840  00000+0  86872-3 0  1000
2 63009  43.0005   5.1819 0001731 271.8673 159.5446 15.70780289    14
STARLINK-11574 [DTC]    
1 63010C 25032F   26100.26020833  .00111130  00000+0  86220-3 0  1006
2 63010  43.0006   5.2054 0001672 269.4987 219.7146 15.70810236    16
STARLINK-11580 [DTC]    
1 63011C 25032G   26100.25812500  .00114660  00000+0  88996-3 0  1009
2 63011  43.0006   4.8437 0001730 269.5111 358.2360 15.70797841    15
STARLINK-11449 [DTC]    
1 63012C 25032H   26100.24909722  .00119470  00000+0  92692-3 0  1004
2 63012  43.0006   5.0472 0001767 277.3855 239.1044 15.70804175    15
STARLINK-11577 [DTC]    
1 63013C 25032J   26100.30673611  .00028677  00000+0  22243-3 0  1000
2 63013  43.0005   4.8480 0001716 274.3992 148.3055 15.70856222    17
STARLINK-11578 [DTC]    
1 63014C 25032K   26100.32131944  .00023739  00000+0  18422-3 0  1009
2 63014  43.0006   4.9838 0001875 261.7893 153.3065 15.70847239    18
STARLINK-11541 [DTC]    
1 63015C 25032L   26100.27479167  .00102730  00000+0  79786-3 0  1005
2 63015  43.0004   4.6663 0001603 270.6225 121.5594 15.70789317    13
STARLINK-11545 [DTC]    
1 63016C 25032M   26100.24562500  .00112580  00000+0  87386-3 0  1006
2 63016  43.0004   4.9916 0001677 270.9375 255.9682 15.70797603    15
STARLINK-11400 [DTC]    
1 63017C 25032N   26100.29354167  .00087173  00000+0  67669-3 0  1001
2 63017  43.0003   5.0754 0001867 271.3562  16.5409 15.70808240    19
STARLINK-32870          
1 63018C 25032P   26100.27270833 -.00032258  00000+0 -11680-2 0  1004
2 63018  42.9996 157.7560 0001243 261.7011 304.6913 15.27604368    17
STARLINK-32872          
1 63019C 25032Q   26100.22062500  .00001989  00000+0  72024-4 0  1006
2 63019  43.0007 158.3439 0001324 271.7351 247.6378 15.27583195    18
STARLINK-32677          
1 63020C 25032R   26100.30951389 -.00043505  00000+0 -15756-2 0  1008
2 63020  42.9998 157.6013 0001504 264.8065 123.0085 15.27603177    17
STARLINK-32929          
1 63021C 25032S   26100.30256944 -.00053631  00000+0 -19418-2 0  1004
2 63021  42.9998 157.6903 0001335 268.6407  59.6875 15.27617321    17
STARLINK-32944          
1 63022C 25032T   26100.25465278 -.00030193  00000+0 -10928-2 0  1006
2 63022  43.0007 158.2057 0001562 274.1750  51.2980 15.27616353    12
STARLINK-32943          
1 63023C 25032U   26100.23104167  .00000897  00000+0  32481-4 0  1008
2 63023  43.0026 157.7613 0001574 258.4473 177.4664 15.27588175    16
STARLINK-32803          
1 63024C 25032V   26100.23590278 -.00005478  00000+0 -19833-3 0  1008
2 63024  43.0025 157.6777 0001446 270.7459 213.2785 15.27597923    19
STARLINK-32926          
1 63025C 25032W   26100.27201389 -.00015545  00000+0 -56317-3 0  1009
2 63025  43.0013 157.3887 0001302 258.0920 100.1653 15.27579394    19
STARLINK-32798          
1 63029C 25034A   26100.30951389 -.00025925  00000+0 -87380-3 0  1008
2 63029  53.1595 123.8809 0001265  85.9020 149.7320 15.30202973    18
STARLINK-32779          
1 63030C 25034B   26100.32965278 -.00030387  00000+0 -10242-2 0  1004
2 63030  53.1597 124.4046 0001374  79.1317 313.4088 15.30204453    13
STARLINK-32716          
1 63031C 25034C   26100.26159722 -.00045371  00000+0 -15291-2 0  1005
2 63031  53.1574 111.2882 0001418  86.8277 259.3876 15.30215101    15
STARLINK-32776          
1 63032C 25034D   26100.25951389 -.00029083  00000+0 -98009-3 0  1005
2 63032  53.1578 111.8241 0001242  84.3767 342.7867 15.30209308    16
STARLINK-32772          
1 63033C 25034E   26100.23451389 -.00037367  00000+0 -12593-2 0  1006
2 63033  53.1589 111.5759 0001308  84.0050  31.4881 15.30211973    14
STARLINK-32830          
1 63034C 25034F   26100.23381944 -.00032192  00000+0 -10850-2 0  1001
2 63034  53.1598 111.6228 0001359  80.4331   7.9752 15.30206382    18
STARLINK-32801          
1 63035C 25034G   26100.30534722 -.00030718  00000+0 -10354-2 0  1005
2 63035  53.1596 111.4639 0001356  82.7984 312.6103 15.30203889    12
STARLINK-32818          
1 63036C 25034H   26100.30881944 -.00009371  00000+0 -31584-3 0  1007
2 63036  53.1598 111.3230 0001332  82.9084  35.6155 15.30195415    12
STARLINK-32810          
1 63037C 25034J   26100.24909722 -.00036322  00000+0 -12242-2 0  1001
2 63037  53.1598 111.6906 0001332  84.7217  18.0962 15.30208214    17
STARLINK-32812          
1 63038C 25034K   26100.31715278 -.00005391  00000+0 -18166-3 0  1005
2 63038  53.1601 111.3244 0001406  83.7346  57.4639 15.30199569    19
STARLINK-32811          
1 63039C 25034L   26100.28798611 -.00035836  00000+0 -12078-2 0  1006
2 63039  53.1598 111.4858 0001341  80.7288 248.0701 15.30208458    13
STARLINK-32832          
1 63040C 25034M   26100.22826389 -.00029448  00000+0 -99255-3 0  1001
2 63040  53.1592 111.6130 0001674  60.1780  15.0610 15.30204087    17
STARLINK-32820          
1 63041C 25034N   26100.24145833 -.00032136  00000+0 -10831-2 0  1002
2 63041  53.1598 111.6191 0001346  82.0663  31.0009 15.30207207    17
STARLINK-32795          
1 63042C 25034P   26100.31645833 -.00025073  00000+0 -84510-3 0  1004
2 63042  53.1575 111.0087 0000892  81.7268 218.5087 15.30203020    10
STARLINK-32827          
1 63043C 25034Q   26100.31923611 -.00032140  00000+0 -10832-2 0  1006
2 63043  53.1593 124.4287 0001500  81.9255 264.8348 15.30207128    13
STARLINK-32735          
1 63044C 25034R   26100.24006944 -.00024167  00000+0 -81508-3 0  1009
2 63044  53.1599 124.1312 0001179  97.0316 150.8054 15.30181059    16
STARLINK-32828          
1 63045C 25034S   26100.25673611 -.00033256  00000+0 -11202-2 0  1004
2 63045  53.1574 124.3258 0001244  93.3584 106.6774 15.30226108    13
STARLINK-32738          
1 63046C 25034T   26100.30812500 -.00034513  00000+0 -11633-2 0  1008
2 63046  53.1577 110.9917 0001258  84.6346 198.7515 15.30205942    12
STARLINK-32590          
1 63047C 25034U   26100.22687500 -.00036050  00000+0 -12150-2 0  1003
2 63047  53.1600 111.7116 0001367  81.9038 299.1416 15.30209512    12
STARLINK-32790          
1 63048C 25034V   26100.27479167 -.00034682  00000+0 -11689-2 0  1002
2 63048  53.1584 111.6931 0001285  82.3676  98.0933 15.30208323    19
STARLINK-32829          
1 63049C 25034W   26100.30118056 -.00019090  00000+0 -64344-3 0  1007
2 63049  53.1591 124.4767 0001566  75.2877 189.4077 15.30199045    17
STARLINK-32816          
1 63050C 25034X   26100.29493056 -.00045585  00000+0 -15362-2 0  1006
2 63050  53.1576 124.2755 0001840  88.5660 258.0094 15.30217271    13
STARLINK-32835          
1 63051C 25034Y   26100.25673611 -.00069209  00000+0 -23313-2 0  1004
2 63051  53.1582 124.5396 0001441  83.8086  11.4995 15.30244413    11
STARLINK-11550 [DTC]    
1 63052C 25035A   26100.31229167  .00015813  00000+0  12270-3 0  1007
2 63052  43.0007 184.5203 0001544 267.7309 201.6707 15.70853424    16
STARLINK-11563 [DTC]    
1 63053C 25035B   26100.24979167  .00089295  00000+0  69328-3 0  1003
2 63053  43.0007 184.9704 0001634 258.2968 187.1964 15.70803688    13
STARLINK-11347 [DTC]    
1 63054C 25035C   26100.30951389  .00066713  00000+0  51760-3 0  1008
2 63054  43.0002 185.0581 0001599 258.2372 345.0171 15.70830908    13
STARLINK-11558 [DTC]    
1 63055C 25035D   26100.26020833  .00087346  00000+0  67801-3 0  1003
2 63055  43.0003 184.6078 0001448 263.8334   0.8744 15.70809492    10
STARLINK-11392 [DTC]    
1 63056C 25035E   26100.30118056  .00043809  00000+0  34014-3 0  1000
2 63056  43.0005 184.9577 0001163 258.4267 357.7776 15.70826359    19
STARLINK-11406 [DTC]    
1 63057C 25035F   26100.31993056  .00016118  00000+0  12508-3 0  1000
2 63057  43.0005 184.6195 0001452 266.8291 185.7107 15.70851923    16
STARLINK-11418 [DTC]    
1 63058C 25035G   26100.31645833  .00048817  00000+0  37888-3 0  1007
2 63058  43.0004 185.0895 0001507 259.4681 353.0569 15.70832198    15
STARLINK-11509 [DTC]    
1 63059C 25035H   26100.28659722  .00075468  00000+0  58575-3 0  1004
2 63059  43.0005 185.1179 0001729 258.3651 245.2133 15.70817434    19
STARLINK-11403 [DTC]    
1 63060C 25035J   26100.32340278  .00025207  00000+0  19568-3 0  1009
2 63060  43.0004 184.7468 0001484 268.9824 143.0954 15.70839630    11
STARLINK-11409 [DTC]    
1 63061C 25035K   26100.24909722  .00087600  00000+0  68000-3 0  1006
2 63061  43.0004 185.2800 0001572 259.7660  56.3933 15.70808547    18
STARLINK-11412 [DTC]    
1 63062C 25035L   26100.29076389  .00076017  00000+0  58908-3 0  1002
2 63062  43.0003 184.8672 0000676 257.0515   0.1590 15.70856621    16
STARLINK-11399 [DTC]    
1 63063C 25035M   26100.30604167  .00057826  00000+0  44937-3 0  1000
2 63063  43.0006 184.4751 0001407 280.9635 183.1216 15.70797747    15
STARLINK-11408 [DTC]    
1 63064C 25035N   26100.29562500  .00068066  00000+0  52807-3 0  1006
2 63064  43.0005 184.4621 0001498 261.8728 173.2944 15.70831779    14
STARLINK-33635          
1 63065C 25035P   26100.27756944 -.00017125  00000+0 -62038-3 0  1001
2 63065  43.0031 328.6637 0001874 277.5834 348.1492 15.27580092    15
STARLINK-33622          
1 63066C 25035Q   26100.32340278 -.00026543  00000+0 -96152-3 0  1005
2 63066  43.0030 328.1574 0001438 272.1067 345.0326 15.27586625    15
STARLINK-33628          
1 63067C 25035R   26100.24979167 -.00003358  00000+0 -12164-3 0  1002
2 63067  43.0006 329.0550 0001618 274.6221  99.1297 15.27572237    10
STARLINK-33627          
1 63068C 25035S   26100.25048611  .00003786  00000+0  13711-3 0  1007
2 63068  43.0015 328.9479 0001643 269.6943 150.2172 15.27581661    14
STARLINK-33620          
1 63069C 25035T   26100.31506944 -.00014696  00000+0 -53213-3 0  1008
2 63069  43.0027 328.5349 0001614 268.4905 168.3209 15.27595742    19
STARLINK-33604          
1 63070C 25035U   26100.29562500 -.00018707  00000+0 -67739-3 0  1002
2 63070  43.0024 328.9860 0001644 269.0563 279.1974 15.27595512    15
